[{"OBJECT_NAME":"STARLINK-1795","OBJECT_ID":"2020-073AC","EPOCH":"2026-03-21T07:03:49.761216","MEAN_MOTION":15.69459656,"ECCENTRICITY":0.00038446,"INCLINATION":53.04,"RA_OF_ASC_NODE":123.6181,"ARG_OF_PERICENTER":72.9361,"MEAN_ANOMALY":287.2076,"EPHEMERIS_TYPE":0,"CLASSIFICATION_TYPE":"U","NORAD_CAT_ID":46696,"ELEMENT_SET_NO":999,"REV_AT_EPOCH":29980,"BSTAR":0.0010328013,"MEAN_MOTION_DOT":0.00125176,"MEAN_MOTION_DDOT":0},{"OBJECT_NAME":"STARLINK-1797","OBJECT_ID":"2020-073AE","EPOCH":"2026-03-20T22:20:56.980320","MEAN_MOTION":15.56990484,"ECCENTRICITY":0.00048809,"INCLINATION":53.0429,"RA_OF_ASC_NODE":154.3812,"ARG_OF_PERICENTER":54.7414,"MEAN_ANOMALY":305.4053,"EPHEMERIS_TYPE":0,"CLASSIFICATION_TYPE":"U","NORAD_CAT_ID":46698,"ELEMENT_SET_NO":999,"REV_AT_EPOCH":29934,"BSTAR":0.0013056009,"MEAN_MOTION_DOT":0.00096638,"MEAN_MOTION_DDOT":0},{"OBJECT_NAME":"STARLINK-1799","OBJECT_ID":"2020-073AF","EPOCH":"2026-03-20T22:00:01.999584","MEAN_MOTION":15.80041792,"ECCENTRICITY":0.00051916,"INCLINATION":53.0412,"RA_OF_ASC_NODE":139.2153,"ARG_OF_PERICENTER":316.6086,"MEAN_ANOMALY":345.5182,"EPHEMERIS_TYPE":0,"CLASSIFICATION_TYPE":"U","NORAD_CAT_ID":46699,"ELEMENT_SET_NO":999,"REV_AT_EPOCH":597,"BSTAR":0.0008601837,"MEAN_MOTION_DOT":0.0016604,"MEAN_MOTION_DDOT":0},{"OBJECT_NAME":"STARLINK-1800","OBJECT_ID":"2020-073AG","EPOCH":"2026-03-21T06:00:02.999808","MEAN_MOTION":15.84271434,"ECCENTRICITY":0.00077821,"INCLINATION":53.042,"RA_OF_ASC_NODE":151.1589,"ARG_OF_PERICENTER":1.6352,"MEAN_ANOMALY":335.2568,"EPHEMERIS_TYPE":0,"CLASSIFICATION_TYPE":"U","NORAD_CAT_ID":46700,"ELEMENT_SET_NO":999,"REV_AT_EPOCH":603,"BSTAR":0.0012265527,"MEAN_MOTION_DOT":0.00293423,"MEAN_MOTION_DDOT":0},{"OBJECT_NAME":"STARLINK-1801","OBJECT_ID":"2020-073AH","EPOCH":"2026-03-20T11:06:40.163040","MEAN_MOTION":15.7422333,"ECCENTRICITY":0.00046628,"INCLINATION":53.0445,"RA_OF_ASC_NODE":144.4803,"ARG_OF_PERICENTER":276.534,"MEAN_ANOMALY":83.5147,"EPHEMERIS_TYPE":0,"CLASSIFICATION_TYPE":"U","NORAD_CAT_ID":46701,"ELEMENT_SET_NO":999,"REV_AT_EPOCH":29944,"BSTAR":0.00060216974,"MEAN_MOTION_DOT":0.00088678,"MEAN_MOTION_DDOT":0},{"OBJECT_NAME":"STARLINK-1802","OBJECT_ID":"2020-073AJ","EPOCH":"2026-03-20T10:04:53.679072","MEAN_MOTION":15.30270536,"ECCENTRICITY":0.00018355,"INCLINATION":53.1567,"RA_OF_ASC_NODE":167.2189,"ARG_OF_PERICENTER":81.6408,"MEAN_ANOMALY":278.4801,"EPHEMERIS_TYPE":0,"CLASSIFICATION_TYPE":"U","NORAD_CAT_ID":46702,"ELEMENT_SET_NO":999,"REV_AT_EPOCH":29912,"BSTAR":0.00044002909,"MEAN_MOTION_DOT":0.00012724,"MEAN_MOTION_DDOT":0},{"OBJECT_NAME":"STARLINK-1805","OBJECT_ID":"2020-073AM","EPOCH":"2026-03-20T16:54:35.819136","MEAN_MOTION":15.54033018,"ECCENTRICITY":0.00044115,"INCLINATION":53.0508,"RA_OF_ASC_NODE":190.4925,"ARG_OF_PERICENTER":307.2521,"MEAN_ANOMALY":52.8086,"EPHEMERIS_TYPE":0,"CLASSIFICATION_TYPE":"U","NORAD_CAT_ID":46705,"ELEMENT_SET_NO":999,"REV_AT_EPOCH":29881,"BSTAR":0.0012403368,"MEAN_MOTION_DOT":0.00082112,"MEAN_MOTION_DDOT":0},{"OBJECT_NAME":"STARLINK-1807","OBJECT_ID":"2020-073AN","EPOCH":"2026-03-20T23:49:31.277568","MEAN_MOTION":15.24735329,"ECCENTRICITY":0.00015674,"INCLINATION":53.0622,"RA_OF_ASC_NODE":176.2378,"ARG_OF_PERICENTER":221.266,"MEAN_ANOMALY":138.8219,"EPHEMERIS_TYPE":0,"CLASSIFICATION_TYPE":"U","NORAD_CAT_ID":46706,"ELEMENT_SET_NO":999,"REV_AT_EPOCH":29904,"BSTAR":0.0015469291,"MEAN_MOTION_DOT":0.00038664,"MEAN_MOTION_DDOT":0},{"OBJECT_NAME":"STARLINK-1810","OBJECT_ID":"2020-073AR","EPOCH":"2026-03-20T23:50:36.965760","MEAN_MOTION":15.48871828,"ECCENTRICITY":0.00017041,"INCLINATION":53.0469,"RA_OF_ASC_NODE":177.9022,"ARG_OF_PERICENTER":272.4058,"MEAN_ANOMALY":87.6755,"EPHEMERIS_TYPE":0,"CLASSIFICATION_TYPE":"U","NORAD_CAT_ID":46709,"ELEMENT_SET_NO":999,"REV_AT_EPOCH":29901,"BSTAR":0.0014818214,"MEAN_MOTION_DOT":0.00081572,"MEAN_MOTION_DDOT":0},{"OBJECT_NAME":"STARLINK-1814","OBJECT_ID":"2020-073AU","EPOCH":"2026-03-21T12:52:28.671744","MEAN_MOTION":16.09836832,"ECCENTRICITY":0.0010586,"INCLINATION":53.0296,"RA_OF_ASC_NODE":123.4057,"ARG_OF_PERICENTER":26.5252,"MEAN_ANOMALY":333.6322,"EPHEMERIS_TYPE":0,"CLASSIFICATION_TYPE":"U","NORAD_CAT_ID":46712,"ELEMENT_SET_NO":999,"REV_AT_EPOCH":29982,"BSTAR":0.0013972,"MEAN_MOTION_DOT":0.01325602,"MEAN_MOTION_DDOT":0.001152},{"OBJECT_NAME":"STARLINK-1815","OBJECT_ID":"2020-073AV","EPOCH":"2026-03-20T21:51:20.797632","MEAN_MOTION":15.70664032,"ECCENTRICITY":0.00062693,"INCLINATION":53.0436,"RA_OF_ASC_NODE":146.8121,"ARG_OF_PERICENTER":21.7539,"MEAN_ANOMALY":338.3743,"EPHEMERIS_TYPE":0,"CLASSIFICATION_TYPE":"U","NORAD_CAT_ID":46713,"ELEMENT_SET_NO":999,"REV_AT_EPOCH":29944,"BSTAR":0.00080462593,"MEAN_MOTION_DOT":0.00102192,"MEAN_MOTION_DDOT":0},{"OBJECT_NAME":"STARLINK-1816","OBJECT_ID":"2020-073AW","EPOCH":"2026-03-20T10:10:44.904576","MEAN_MOTION":15.76525409,"ECCENTRICITY":0.00018055,"INCLINATION":53.0392,"RA_OF_ASC_NODE":145.2184,"ARG_OF_PERICENTER":35.3849,"MEAN_ANOMALY":324.729,"EPHEMERIS_TYPE":0,"CLASSIFICATION_TYPE":"U","NORAD_CAT_ID":46714,"ELEMENT_SET_NO":999,"REV_AT_EPOCH":29942,"BSTAR":0.00059033717,"MEAN_MOTION_DOT":0.00096204,"MEAN_MOTION_DDOT":0},{"OBJECT_NAME":"STARLINK-1817","OBJECT_ID":"2020-073AX","EPOCH":"2026-03-20T16:50:07.871136","MEAN_MOTION":15.64285416,"ECCENTRICITY":0.00054079,"INCLINATION":53.0469,"RA_OF_ASC_NODE":163.4267,"ARG_OF_PERICENTER":319.4549,"MEAN_ANOMALY":40.6062,"EPHEMERIS_TYPE":0,"CLASSIFICATION_TYPE":"U","NORAD_CAT_ID":46715,"ELEMENT_SET_NO":999,"REV_AT_EPOCH":29919,"BSTAR":0.0013786017,"MEAN_MOTION_DOT":0.00135848,"MEAN_MOTION_DDOT":0},{"OBJECT_NAME":"STARLINK-1820","OBJECT_ID":"2020-073AZ","EPOCH":"2026-03-21T04:00:00.999936","MEAN_MOTION":15.95236085,"ECCENTRICITY":0.00067966,"INCLINATION":53.0355,"RA_OF_ASC_NODE":103.816,"ARG_OF_PERICENTER":29.5711,"MEAN_ANOMALY":287.6012,"EPHEMERIS_TYPE":0,"CLASSIFICATION_TYPE":"U","NORAD_CAT_ID":46717,"ELEMENT_SET_NO":999,"REV_AT_EPOCH":603,"BSTAR":0.00083023567,"MEAN_MOTION_DOT":0.0033234,"MEAN_MOTION_DDOT":5.4728365e-5},{"OBJECT_NAME":"STARLINK-1821","OBJECT_ID":"2020-073BA","EPOCH":"2026-03-19T12:53:36.028320","MEAN_MOTION":15.39459839,"ECCENTRICITY":0.00016437,"INCLINATION":53.048,"RA_OF_ASC_NODE":180.1146,"ARG_OF_PERICENTER":236.0759,"MEAN_ANOMALY":124.0088,"EPHEMERIS_TYPE":0,"CLASSIFICATION_TYPE":"U","NORAD_CAT_ID":46718,"ELEMENT_SET_NO":999,"REV_AT_EPOCH":29886,"BSTAR":0.001158944,"MEAN_MOTION_DOT":0.00045997,"MEAN_MOTION_DDOT":0},{"OBJECT_NAME":"STARLINK-1826","OBJECT_ID":"2020-073BF","EPOCH":"2026-03-20T09:13:57.349056","MEAN_MOTION":15.62588364,"ECCENTRICITY":0.00034802,"INCLINATION":53.0465,"RA_OF_ASC_NODE":128.2648,"ARG_OF_PERICENTER":273.6761,"MEAN_ANOMALY":86.3854,"EPHEMERIS_TYPE":0,"CLASSIFICATION_TYPE":"U","NORAD_CAT_ID":46723,"ELEMENT_SET_NO":999,"REV_AT_EPOCH":29966,"BSTAR":0.00075590342,"MEAN_MOTION_DOT":0.00068832,"MEAN_MOTION_DDOT":0},{"OBJECT_NAME":"STARLINK-1828","OBJECT_ID":"2020-073BH","EPOCH":"2026-03-20T23:33:51.045984","MEAN_MOTION":15.55724368,"ECCENTRICITY":0.00041825,"INCLINATION":53.0481,"RA_OF_ASC_NODE":181.863,"ARG_OF_PERICENTER":33.9132,"MEAN_ANOMALY":326.2145,"EPHEMERIS_TYPE":0,"CLASSIFICATION_TYPE":"U","NORAD_CAT_ID":46725,"ELEMENT_SET_NO":999,"REV_AT_EPOCH":29896,"BSTAR":0.0013529622,"MEAN_MOTION_DOT":0.00095526,"MEAN_MOTION_DDOT":0},{"OBJECT_NAME":"STARLINK-1830","OBJECT_ID":"2020-073BK","EPOCH":"2026-03-20T20:38:00.964896","MEAN_MOTION":15.57486128,"ECCENTRICITY":0.00038818,"INCLINATION":53.0418,"RA_OF_ASC_NODE":129.2642,"ARG_OF_PERICENTER":40.6209,"MEAN_ANOMALY":319.5091,"EPHEMERIS_TYPE":0,"CLASSIFICATION_TYPE":"U","NORAD_CAT_ID":46727,"ELEMENT_SET_NO":999,"REV_AT_EPOCH":29969,"BSTAR":0.0013196502,"MEAN_MOTION_DOT":0.00099535,"MEAN_MOTION_DDOT":0},{"OBJECT_NAME":"STARLINK-1892","OBJECT_ID":"2020-074E","EPOCH":"2026-03-21T03:14:03.879168","MEAN_MOTION":15.52783517,"ECCENTRICITY":0.00020013,"INCLINATION":53.0436,"RA_OF_ASC_NODE":238.4479,"ARG_OF_PERICENTER":114.7146,"MEAN_ANOMALY":245.4071,"EPHEMERIS_TYPE":0,"CLASSIFICATION_TYPE":"U","NORAD_CAT_ID":46743,"ELEMENT_SET_NO":999,"REV_AT_EPOCH":29885,"BSTAR":0.0017942634,"MEAN_MOTION_DOT":0.00114147,"MEAN_MOTION_DDOT":0},{"OBJECT_NAME":"STARLINK-1894","OBJECT_ID":"2020-074F","EPOCH":"2026-03-21T06:00:02.999808","MEAN_MOTION":15.85791886,"ECCENTRICITY":0.00067797,"INCLINATION":53.0409,"RA_OF_ASC_NODE":219.4565,"ARG_OF_PERICENTER":334.995,"MEAN_ANOMALY":38.4003,"EPHEMERIS_TYPE":0,"CLASSIFICATION_TYPE":"U","NORAD_CAT_ID":46744,"ELEMENT_SET_NO":999,"REV_AT_EPOCH":603,"BSTAR":0.0016493253,"MEAN_MOTION_DOT":0.00431243,"MEAN_MOTION_DDOT":0},{"OBJECT_NAME":"STARLINK-1905","OBJECT_ID":"2020-074H","EPOCH":"2026-03-20T10:45:02.232000","MEAN_MOTION":15.65674958,"ECCENTRICITY":0.00029103,"INCLINATION":53.0447,"RA_OF_ASC_NODE":230.8929,"ARG_OF_PERICENTER":347.5573,"MEAN_ANOMALY":12.5369,"EPHEMERIS_TYPE":0,"CLASSIFICATION_TYPE":"U","NORAD_CAT_ID":46746,"ELEMENT_SET_NO":999,"REV_AT_EPOCH":29889,"BSTAR":0.00062056277,"MEAN_MOTION_DOT":0.00063732,"MEAN_MOTION_DDOT":0},{"OBJECT_NAME":"STARLINK-1911","OBJECT_ID":"2020-074L","EPOCH":"2026-03-20T21:06:13.140000","MEAN_MOTION":15.74764403,"ECCENTRICITY":0.00031764,"INCLINATION":53.0469,"RA_OF_ASC_NODE":222.8534,"ARG_OF_PERICENTER":3.5353,"MEAN_ANOMALY":356.5688,"EPHEMERIS_TYPE":0,"CLASSIFICATION_TYPE":"U","NORAD_CAT_ID":46749,"ELEMENT_SET_NO":999,"REV_AT_EPOCH":29904,"BSTAR":0.00091375667,"MEAN_MOTION_DOT":0.00138884,"MEAN_MOTION_DDOT":0},{"OBJECT_NAME":"STARLINK-1922","OBJECT_ID":"2020-074Q","EPOCH":"2026-03-20T16:15:27.382464","MEAN_MOTION":15.66320202,"ECCENTRICITY":0.00034295,"INCLINATION":53.045,"RA_OF_ASC_NODE":229.7866,"ARG_OF_PERICENTER":10.5528,"MEAN_ANOMALY":349.5558,"EPHEMERIS_TYPE":0,"CLASSIFICATION_TYPE":"U","NORAD_CAT_ID":46753,"ELEMENT_SET_NO":999,"REV_AT_EPOCH":29893,"BSTAR":0.00091138938,"MEAN_MOTION_DOT":0.00096732,"MEAN_MOTION_DDOT":0}]
